start=new Date('2022-10-30T00:00:00.000Z').valueOf();
sats=[{"INCLINATION":"53.0569","RCS_SIZE":"LARGE","PERIAPSIS":"546.207","OBJECT_ID":"2020-057X","BSTAR":"0.00010646000000","TIME_SYSTEM":"UTC","CLASSIFICATION_TYPE":"U","OBJECT_NAME":"STARLINK-1590","MEAN_MOTION_DOT":"0.00001305","MEAN_MOTION_DDOT":"0.0000000000000","TLE_LINE1":"1 46138U 20057X   22302.73591496  .00001305  00000-0  10646-3 0  9998","ECCENTRICITY":"0.00014260","COUNTRY_CODE":"US","DECAY_DATE":null,"APOAPSIS":"548.182","MEAN_ANOMALY":"253.1931","EPOCH":"2022-10-29T17:39:43.052544","TLE_LINE2":"2 46138  53.0569  64.6385 0001426 106.9214 253.1931 15.06406078121139","GP_ID":"216474829","SEMIMAJOR_AXIS":"6925.330","RA_OF_ASC_NODE":"64.6385","ELEMENT_SET_NO":"999","SITE":"AFETR","EPHEMERIS_TYPE":"0","MEAN_MOTION":"15.06406078","LAUNCH_DATE":"2020-08-18","REF_FRAME":"TEME","OBJECT_TYPE":"PAYLOAD","FILE":"3637863","ARG_OF_PERICENTER":"106.9214","CENTER_NAME":"EARTH","PERIOD":"95.592","REV_AT_EPOCH":"12113","NORAD_CAT_ID":"46138","MEAN_ELEMENT_THEORY":"SGP4"},{"TLE_LINE2":"2 46140  53.0562  25.0940 0001857  46.7255 313.3889 15.06413869122944","MEAN_ANOMALY":"313.3889","EPOCH":"2022-10-29T15:05:47.156928","APOAPSIS":"548.457","GP_ID":"216475059","ELEMENT_SET_NO":"999","RA_OF_ASC_NODE":"25.0940","SEMIMAJOR_AXIS":"6925.306","EPHEMERIS_TYPE":"0","SITE":"AFETR","OBJECT_ID":"2020-057Z","BSTAR":"0.00009011500000","PERIAPSIS":"545.885","RCS_SIZE":"LARGE","INCLINATION":"53.0562","CLASSIFICATION_TYPE":"U","TIME_SYSTEM":"UTC","MEAN_MOTION_DDOT":"0.0000000000000","MEAN_MOTION_DOT":"0.00001061","OBJECT_NAME":"STARLINK-1594","COUNTRY_CODE":"US","DECAY_DATE":null,"ECCENTRICITY":"0.00018570","TLE_LINE1":"1 46140U 20057Z   22302.62901802  .00001061  00000-0  90115-4 0  9994","CENTER_NAME":"EARTH","ARG_OF_PERICENTER":"46.7255","PERIOD":"95.591","NORAD_CAT_ID":"46140","REV_AT_EPOCH":"12294","MEAN_ELEMENT_THEORY":"SGP4","LAUNCH_DATE":"2020-08-18","MEAN_MOTION":"15.06413869","REF_FRAME":"TEME","FILE":"3637863","OBJECT_TYPE":"PAYLOAD"},{"MEAN_ELEMENT_THEORY":"SGP4","NORAD_CAT_ID":"46141","REV_AT_EPOCH":"12167","PERIOD":"95.591","CENTER_NAME":"EARTH","ARG_OF_PERICENTER":"53.0192","FILE":"3637863","OBJECT_TYPE":"PAYLOAD","REF_FRAME":"TEME","MEAN_MOTION":"15.06411486","LAUNCH_DATE":"2020-08-18","EPHEMERIS_TYPE":"0","SITE":"AFETR","ELEMENT_SET_NO":"999","SEMIMAJOR_AXIS":"6925.313","RA_OF_ASC_NODE":"25.1955","GP_ID":"216465278","MEAN_ANOMALY":"307.0920","EPOCH":"2022-10-29T14:33:56.865888","TLE_LINE2":"2 46141  53.0564  25.1955 0001348  53.0192 307.0920 15.06411486121678","APOAPSIS":"548.112","COUNTRY_CODE":"US","DECAY_DATE":null,"TLE_LINE1":"1 46141U 20057AA  22302.60690817 -.00000677  00000-0 -26524-4 0  9991","ECCENTRICITY":"0.00013480","MEAN_MOTION_DDOT":"0.0000000000000","OBJECT_NAME":"STARLINK-1596","MEAN_MOTION_DOT":"-0.00000677","CLASSIFICATION_TYPE":"U","TIME_SYSTEM":"UTC","PERIAPSIS":"546.245","OBJECT_ID":"2020-057AA","BSTAR":"-0.00002652400000","INCLINATION":"53.0564","RCS_SIZE":"LARGE"},{"GP_ID":"216474079","APOAPSIS":"547.860","TLE_LINE2":"2 46142  53.0565  64.2371 0000976  95.0906 265.0195 15.06409482121143","MEAN_ANOMALY":"265.0195","EPOCH":"2022-10-29T19:47:07.078272","SITE":"AFETR","EPHEMERIS_TYPE":"0","SEMIMAJOR_AXIS":"6925.319","RA_OF_ASC_NODE":"64.2371","ELEMENT_SET_NO":"999","TIME_SYSTEM":"UTC","CLASSIFICATION_TYPE":"U","RCS_SIZE":"LARGE","INCLINATION":"53.0565","OBJECT_ID":"2020-057AB","BSTAR":"0.00016596000000","PERIAPSIS":"546.509","ECCENTRICITY":"0.00009760","TLE_LINE1":"1 46142U 20057AB  22302.82438748  .00002192  00000-0  16596-3 0  9998","COUNTRY_CODE":"US","DECAY_DATE":null,"MEAN_MOTION_DOT":"0.00002192","OBJECT_NAME":"STARLINK-1597","MEAN_MOTION_DDOT":"0.0000000000000","PERIOD":"95.592","ARG_OF_PERICENTER":"95.0906","CENTER_NAME":"EARTH","MEAN_ELEMENT_THEORY":"SGP4","REV_AT_EPOCH":"12114","NORAD_CAT_ID":"46142","REF_FRAME":"TEME","LAUNCH_DATE":"2020-08-18","MEAN_MOTION":"15.06409482","OBJECT_TYPE":"PAYLOAD","FILE":"3637863"},{"OBJECT_TYPE":"PAYLOAD","FILE":"3637863","LAUNCH_DATE":"2020-08-18","MEAN_MOTION":"15.06438422","REF_FRAME":"TEME","REV_AT_EPOCH":"10967","NORAD_CAT_ID":"46144","MEAN_ELEMENT_THEORY":"SGP4","ARG_OF_PERICENTER":"75.5003","CENTER_NAME":"EARTH","PERIOD":"95.590","MEAN_MOTION_DOT":"0.00025079","OBJECT_NAME":"STARLINK-1606","MEAN_MOTION_DDOT":"0.0000000000000","ECCENTRICITY":"0.00017010","TLE_LINE1":"1 46144U 20057AD  22302.78938386  .00025079  00000-0  16948-2 0  9997","DECAY_DATE":null,"COUNTRY_CODE":"US","RCS_SIZE":"LARGE","INCLINATION":"53.0544","OBJECT_ID":"2020-057AD","BSTAR":"0.00169480000000","PERIAPSIS":"545.918","TIME_SYSTEM":"UTC","CLASSIFICATION_TYPE":"U","RA_OF_ASC_NODE":"44.3827","SEMIMAJOR_AXIS":"6925.231","ELEMENT_SET_NO":"999","SITE":"AFETR","EPHEMERIS_TYPE":"0","APOAPSIS":"548.274","TLE_LINE2":"2 46144  53.0544  44.3827 0001701  75.5003 284.6175 15.06438422109670","EPOCH":"2022-10-29T18:56:42.765504","MEAN_ANOMALY":"284.6175","GP_ID":"216474330"},{"GP_ID":"216474560","MEAN_ANOMALY":"269.6688","EPOCH":"2022-10-29T12:05:19.839840","TLE_LINE2":"2 46146  53.0557  65.6851 0001394  90.4461 269.6688 15.06403276121104","APOAPSIS":"548.169","EPHEMERIS_TYPE":"0","SITE":"AFETR","ELEMENT_SET_NO":"999","SEMIMAJOR_AXIS":"6925.339","RA_OF_ASC_NODE":"65.6851","CLASSIFICATION_TYPE":"U","TIME_SYSTEM":"UTC","PERIAPSIS":"546.238","BSTAR":"0.00002189800000","OBJECT_ID":"2020-057AF","INCLINATION":"53.0557","RCS_SIZE":"LARGE","DECAY_DATE":null,"COUNTRY_CODE":"US","TLE_LINE1":"1 46146U 20057AF  22302.50370185  .00000045  00000-0  21898-4 0  9994","ECCENTRICITY":"0.00013940","MEAN_MOTION_DDOT":"0.0000000000000","OBJECT_NAME":"STARLINK-1608","MEAN_MOTION_DOT":"0.00000045","PERIOD":"95.592","CENTER_NAME":"EARTH","ARG_OF_PERICENTER":"90.4461","MEAN_ELEMENT_THEORY":"SGP4","NORAD_CAT_ID":"46146","REV_AT_EPOCH":"12110","REF_FRAME":"TEME","MEAN_MOTION":"15.06403276","LAUNCH_DATE":"2020-08-18","FILE":"3637863","OBJECT_TYPE":"PAYLOAD"},{"CLASSIFICATION_TYPE":"U","TIME_SYSTEM":"UTC","PERIAPSIS":"546.101","OBJECT_ID":"2020-057AG","BSTAR":"0.00104310000000","INCLINATION":"53.0542","RCS_SIZE":"LARGE","DECAY_DATE":null,"COUNTRY_CODE":"US","TLE_LINE1":"1 46147U 20057AG  22302.81700337  .00015299  00000-0  10431-2 0  9991","ECCENTRICITY":"0.00015040","MEAN_MOTION_DDOT":"0.0000000000000","OBJECT_NAME":"STARLINK-1611","MEAN_MOTION_DOT":"0.00015299","GP_ID":"216473330","EPOCH":"2022-10-29T19:36:29.091168","MEAN_ANOMALY":"270.6837","TLE_LINE2":"2 46147  53.0542  64.2682 0001504  89.4324 270.6837 15.06423109122404","APOAPSIS":"548.184","EPHEMERIS_TYPE":"0","SITE":"AFETR","ELEMENT_SET_NO":"999","SEMIMAJOR_AXIS":"6925.278","RA_OF_ASC_NODE":"64.2682","REF_FRAME":"TEME","MEAN_MOTION":"15.06423109","LAUNCH_DATE":"2020-08-18","FILE":"3637863","OBJECT_TYPE":"PAYLOAD","PERIOD":"95.591","CENTER_NAME":"EARTH","ARG_OF_PERICENTER":"89.4324","MEAN_ELEMENT_THEORY":"SGP4","NORAD_CAT_ID":"46147","REV_AT_EPOCH":"12240"},{"OBJECT_ID":"2020-057AH","BSTAR":"0.00010721000000","PERIAPSIS":"546.266","RCS_SIZE":"LARGE","INCLINATION":"53.0563","CLASSIFICATION_TYPE":"U","TIME_SYSTEM":"UTC","MEAN_MOTION_DDOT":"0.0000000000000","MEAN_MOTION_DOT":"0.00001316","OBJECT_NAME":"STARLINK-1616","DECAY_DATE":null,"COUNTRY_CODE":"US","ECCENTRICITY":"0.00013480","TLE_LINE1":"1 46148U 20057AH  22302.75618766  .00001316  00000-0  10721-3 0  9997","TLE_LINE2":"2 46148  53.0563  44.5455 0001348 100.7792 259.3349 15.06404518121414","EPOCH":"2022-10-29T18:08:54.613824","MEAN_ANOMALY":"259.3349","APOAPSIS":"548.133","GP_ID":"216473580","ELEMENT_SET_NO":"999","SEMIMAJOR_AXIS":"6925.335","RA_OF_ASC_NODE":"44.5455","EPHEMERIS_TYPE":"0","SITE":"AFETR","LAUNCH_DATE":"2020-08-18","MEAN_MOTION":"15.06404518","REF_FRAME":"TEME","FILE":"3637863","OBJECT_TYPE":"PAYLOAD","CENTER_NAME":"EARTH","ARG_OF_PERICENTER":"100.7792","PERIOD":"95.592","NORAD_CAT_ID":"46148","REV_AT_EPOCH":"12141","MEAN_ELEMENT_THEORY":"SGP4"},{"MEAN_ELEMENT_THEORY":"SGP4","REV_AT_EPOCH":"12268","NORAD_CAT_ID":"46149","PERIOD":"95.592","ARG_OF_PERICENTER":"73.1821","CENTER_NAME":"EARTH","OBJECT_TYPE":"PAYLOAD","FILE":"3637863","REF_FRAME":"TEME","MEAN_MOTION":"15.06407476","LAUNCH_DATE":"2020-08-18","SITE":"AFETR","EPHEMERIS_TYPE":"0","SEMIMAJOR_AXIS":"6925.326","RA_OF_ASC_NODE":"44.7728","ELEMENT_SET_NO":"999","GP_ID":"216474830","APOAPSIS":"548.200","EPOCH":"2022-10-29T16:53:14.375904","MEAN_ANOMALY":"286.9328","TLE_LINE2":"2 46149  53.0557  44.7728 0001457  73.1821 286.9328 15.06407476122689","TLE_LINE1":"1 46149U 20057AJ  22302.70363861  .00002256  00000-0  17025-3 0  9994","ECCENTRICITY":"0.00014570","COUNTRY_CODE":"US","DECAY_DATE":null,"OBJECT_NAME":"STARLINK-1620","MEAN_MOTION_DOT":"0.00002256","MEAN_MOTION_DDOT":"0.0000000000000","TIME_SYSTEM":"UTC","CLASSIFICATION_TYPE":"U","INCLINATION":"53.0557","RCS_SIZE":"LARGE","PERIAPSIS":"546.182","OBJECT_ID":"2020-057AJ","BSTAR":"0.00017025000000"},{"MEAN_ELEMENT_THEORY":"SGP4","REV_AT_EPOCH":"12110","NORAD_CAT_ID":"46150","PERIOD":"95.592","ARG_OF_PERICENTER":"104.9924","CENTER_NAME":"EARTH","OBJECT_TYPE":"PAYLOAD","FILE":"3637863","REF_FRAME":"TEME","MEAN_MOTION":"15.06404791","LAUNCH_DATE":"2020-08-18","SITE":"AFETR","EPHEMERIS_TYPE":"0","SEMIMAJOR_AXIS":"6925.334","RA_OF_ASC_NODE":"65.6904","ELEMENT_SET_NO":"999","GP_ID":"216475060","APOAPSIS":"548.285","MEAN_ANOMALY":"255.1238","EPOCH":"2022-10-29T12:00:01.150848","TLE_LINE2":"2 46150  53.0555  65.6904 0001568 104.9924 255.1238 15.06404791121108","TLE_LINE1":"1 46150U 20057AK  22302.50001332  .00000367  00000-0  43521-4 0  9998","ECCENTRICITY":"0.00015680","COUNTRY_CODE":"US","DECAY_DATE":null,"OBJECT_NAME":"STARLINK-1629","MEAN_MOTION_DOT":"0.00000367","MEAN_MOTION_DDOT":"0.0000000000000","TIME_SYSTEM":"UTC","CLASSIFICATION_TYPE":"U","INCLINATION":"53.0555","RCS_SIZE":"LARGE","PERIAPSIS":"546.113","BSTAR":"0.00004352100000","OBJECT_ID":"2020-057AK"}];
